NORAD_CAT_ID,OBJECT_NAME,OBJECT_TYPE,EPOCH,MEAN_MOTION,ECCENTRICITY,INCLINATION,RA_OF_ASC_NODE,ARG_OF_PERICENTER,MEAN_ANOMALY,BSTAR,MEAN_MOTION_DOT,MEAN_MOTION_DDOT,TLE_LINE0,TLE_LINE1,TLE_LINE2,SEMIMAJOR_AXIS,PERIOD,APOGEE,PERIGEE,DECAYED
52001.0,STARLINK-3659,PAYLOAD,2024-08-02 01:27:09,15.08840495,0.0001415,53.2165,123.6332,87.8578,272.2576,0.00022588,3.309e-05,0.0,0 STARLINK-3659,1 52001U 22025AX  24215.06053209  .00003309  00000-0  22588-3 0  9991,2 52001  53.2165 123.6332 0001415  87.8578 272.2576 15.08840495134199,6917.879,95.438,540.723,538.765,0.0
52001.0,STARLINK-3659,PAYLOAD,2024-08-02 22:07:11,15.08843857,0.0001365,53.216,119.7689,93.6599,266.4549,0.0002752,4.095e-05,0.0,0 STARLINK-3659,1 52001U 22025AX  24215.92165513  .00004095  00000-0  27520-3 0  9992,2 52001  53.2160 119.7689 0001365  93.6599 266.4549 15.08843857132791,6917.869,95.437,540.678,538.789,0.0
52001.0,STARLINK-3659,PAYLOAD,2024-08-03 02:53:20,15.0884393,0.000125,53.2164,118.8722,87.7252,272.3883,0.00023477,3.451e-05,0.0,0 STARLINK-3659,1 52001U 22025AX  24216.12037438  .00003451  00000-0  23477-3 0  9991,2 52001  53.2164 118.8722 0001250  87.7252 272.3883 15.08843930134359,6917.868,95.437,540.598,538.869,0.0
52001.0,STARLINK-3659,PAYLOAD,2024-08-03 10:50:15,15.08852921,0.0001176,53.216,117.3886,97.2455,262.8671,0.00035952,5.441e-05,0.0,0 STARLINK-3659,1 52001U 22025AX  24216.45156973  .00005441  00000-0  35952-3 0  9995,2 52001  53.2160 117.3886 0001176  97.2455 262.8671 15.08852921132872,6917.841,95.437,540.519,538.892,0.0
52001.0,STARLINK-3659,PAYLOAD,2024-08-03 21:57:58,15.08836192,0.0001544,53.2167,115.309,94.1763,265.9406,8.8955e-05,1.128e-05,0.0,0 STARLINK-3659,1 52001U 22025AX  24216.91525884  .00001128  00000-0  88955-4 0  9997,2 52001  53.2167 115.3090 0001544  94.1763 265.9406 15.08836192132941,6917.892,95.438,540.825,538.689,0.0
52001.0,STARLINK-3659,PAYLOAD,2024-08-04 02:44:07,15.08844375,0.0001407,53.2165,114.4141,109.1475,250.967,0.00024906,3.679e-05,0.0,0 STARLINK-3659,1 52001U 22025AX  24217.11397435  .00003679  00000-0  24906-3 0  9997,2 52001  53.2165 114.4141 0001407 109.1475 250.9670 15.08844375134504,6917.867,95.437,540.705,538.759,0.0
52001.0,STARLINK-3659,PAYLOAD,2024-08-04 10:41:02,15.08851318,0.0001196,53.2159,112.9261,113.9449,246.1669,0.00042335,6.458e-05,0.0,0 STARLINK-3659,1 52001U 22025AX  24217.44517256  .00006458  00000-0  42335-3 0  9992,2 52001  53.2159 112.9261 0001196 113.9449 246.1669 15.08851318133028,6917.846,95.437,540.538,538.883,0.0
52001.0,STARLINK-3659,PAYLOAD,2024-08-04 23:24:08,15.08843132,0.0001493,53.2176,110.5499,100.9821,259.1339,0.00016746,2.378e-05,0.0,0 STARLINK-3659,1 52001U 22025AX  24217.97509720  .00002378  00000-0  16746-3 0  9991,2 52001  53.2176 110.5499 0001493 100.9821 259.1339 15.08843132133106,6917.871,95.437,540.769,538.703,0.0
52001.0,STARLINK-3659,PAYLOAD,2024-08-05 20:04:10,15.08811157,0.0001367,53.2144,106.6859,73.324,286.7902,-0.00034533,-5.775e-05,0.0,0 STARLINK-3659,1 52001U 22025AX  24218.83623051 -.00005775  00000-0 -34533-3 0  9991,2 52001  53.2144 106.6859 0001367  73.3240 286.7902 15.08811157134762,6917.969,95.439,540.779,538.888,0.0
52001.0,STARLINK-3659,PAYLOAD,2024-08-05 23:14:56,15.08814552,0.00014,53.2172,106.0902,80.662,279.453,-0.00037744,-6.286e-05,0.0,0 STARLINK-3659,1 52001U 22025AX  24218.96870898 -.00006286  00000-0 -37744-3 0  9993,2 52001  53.2172 106.0902 0001400  80.6620 279.4530 15.08814552133258,6917.958,95.439,540.792,538.855,0.0
52001.0,STARLINK-3659,PAYLOAD,2024-08-06 19:54:57,15.08846951,0.0001409,53.2162,102.224,73.6482,286.4665,0.0010693,0.00016774,0.0,0 STARLINK-3659,1 52001U 22025AX  24219.82983133  .00016774  00000-0  10693-2 0  9990,2 52001  53.2162 102.2240 0001409  73.6482 286.4665 15.08846951134916,6917.859,95.437,540.699,538.749,0.0
52001.0,STARLINK-3659,PAYLOAD,2024-08-06 21:30:20,15.08857243,0.0001342,53.2165,101.9266,69.9154,290.1982,0.0017085,0.0002702,0.0,0 STARLINK-3659,1 52001U 22025AX  24219.89607206  .00027020  00000-0  17085-2 0  9999,2 52001  53.2165 101.9266 0001342  69.9154 290.1982 15.08857243133394,6917.828,95.436,540.621,538.764,0.0
52001.0,STARLINK-3659,PAYLOAD,2024-08-07 02:16:29,15.08875256,0.0001305,53.2166,101.0345,69.8051,290.3082,0.0019893,0.00031544,0.0,0 STARLINK-3659,1 52001U 22025AX  24220.09478760  .00031544  00000-0  19893-2 0  9999,2 52001  53.2166 101.0345 0001305  69.8051 290.3082 15.08875256134958,6917.773,95.435,540.54,538.735,0.0
52001.0,STARLINK-3659,PAYLOAD,2024-08-07 19:45:43,15.08870485,0.0001767,53.2159,97.7576,119.6209,240.4959,0.0012749,0.00020077,0.0,0 STARLINK-3659,1 52001U 22025AX  24220.82341863  .00020077  00000-0  12749-2 0  9995,2 52001  53.2159  97.7576 0001767 119.6209 240.4959 15.08870485135069,6917.787,95.436,540.875,538.43,0.0
52001.0,STARLINK-3659,PAYLOAD,2024-08-08 19:36:30,15.08859997,0.0003315,53.2164,93.3,10.5464,349.5597,0.0012124,0.00019072,0.0,0 STARLINK-3659,1 52001U 22025AX  24221.81702437  .00019072  00000-0  12124-2 0  9993,2 52001  53.2164  93.3000 0003315  10.5464 349.5597 15.08859997135213,6917.819,95.436,541.978,537.391,0.0
52001.0,STARLINK-3659,PAYLOAD,2024-08-08 22:47:16,15.08849483,0.0001149,53.2152,92.705,80.3029,279.8093,0.00057202,8.83e-05,0.0,0 STARLINK-3659,1 52001U 22025AX  24221.94949828  .00008830  00000-0  57202-3 0  9991,2 52001  53.2152  92.7050 0001149  80.3029 279.8093 15.08849483133700,6917.851,95.437,540.511,538.922,0.0
52001.0,STARLINK-3659,PAYLOAD,2024-08-09 14:41:08,15.0882666,0.0001497,53.216,89.7361,81.7509,278.3652,-0.00038015,-6.331e-05,0.0,0 STARLINK-3659,1 52001U 22025AX  24222.61190085 -.00006331  00000-0 -38015-3 0  9996,2 52001  53.2160  89.7361 0001497  81.7509 278.3652 15.08826660133802,6917.921,95.438,540.822,538.751,0.0
52001.0,STARLINK-3659,PAYLOAD,2024-08-09 19:27:18,15.08818003,0.0001158,53.2161,88.8427,89.5109,270.6016,-0.00048692,-8.024e-05,0.0,0 STARLINK-3659,1 52001U 22025AX  24222.81062634 -.00008024  00000-0 -48692-3 0  9999,2 52001  53.2161  88.8427 0001158  89.5109 270.6016 15.08818003135366,6917.948,95.439,540.614,539.012,0.0
52001.0,STARLINK-3659,PAYLOAD,2024-08-09 21:02:41,15.08819134,0.0001276,53.2158,88.5452,96.5675,263.5462,-0.00033648,-5.636e-05,0.0,0 STARLINK-3659,1 52001U 22025AX  24222.87686720 -.00005636  00000-0 -33648-3 0  9994,2 52001  53.2158  88.5452 0001276  96.5675 263.5462 15.08819134133847,6917.944,95.439,540.692,538.926,0.0
52001.0,STARLINK-3659,PAYLOAD,2024-08-10 00:13:27,15.08827693,0.000118,53.2158,87.947,110.1237,249.9882,-0.0001396,-2.508e-05,0.0,0 STARLINK-3659,1 52001U 22025AX  24223.00934599 -.00002508  00000-0 -13960-3 0  9990,2 52001  53.2158  87.9470 0001180 110.1237 249.9882 15.08827693135396,6917.918,95.438,540.599,538.967,0.0
52001.0,STARLINK-3659,PAYLOAD,2024-08-10 19:18:05,15.08847154,9.78e-05,53.2151,84.3815,54.0521,306.0561,0.0007133,0.00011085,0.0,0 STARLINK-3659,1 52001U 22025AX  24223.80422863  .00011085  00000-0  71330-3 0  9997,2 52001  53.2151  84.3815 0000978  54.0521 306.0561 15.08847154135516,6917.859,95.437,540.4,539.047,0.0
52001.0,STARLINK-3659,PAYLOAD,2024-08-10 22:28:51,15.08871525,0.0001099,53.2158,83.7871,90.5327,269.5791,0.0017739,0.00028081,0.0,0 STARLINK-3659,1 52001U 22025AX  24223.93670524  .00028081  00000-0  17739-2 0  9996,2 52001  53.2158  83.7871 0001099  90.5327 269.5791 15.08871525134002,6917.784,95.436,540.409,538.889,0.0
52001.0,STARLINK-3659,PAYLOAD,2024-08-11 00:04:14,15.08878185,0.0001057,53.2157,83.4899,88.5772,271.5341,0.0019705,0.00031245,0.0,0 STARLINK-3659,1 52001U 22025AX  24224.00294332  .00031245  00000-0  19705-2 0  9995,2 52001  53.2157  83.4899 0001057  88.5772 271.5341 15.08878185135546,6917.764,95.435,540.36,538.897,0.0
52001.0,STARLINK-3659,PAYLOAD,2024-08-11 08:01:08,15.0892447,0.0001624,53.2158,82.0043,53.1408,306.9733,0.0029901,0.00047733,0.0,0 STARLINK-3659,1 52001U 22025AX  24224.33412768  .00047733  00000-0  29901-2 0  9994,2 52001  53.2158  82.0043 0001624  53.1408 306.9733 15.08924470135599,6917.622,95.432,540.611,538.364,0.0
52001.0,STARLINK-3659,PAYLOAD,2024-08-11 14:22:41,15.08864477,0.0001474,53.2158,80.8128,68.7305,291.3845,-0.00065445,-0.00010695,0.0,0 STARLINK-3659,1 52001U 22025AX  24224.59908636 -.00010695  00000-0 -65445-3 0  9999,2 52001  53.2158  80.8128 0001474  68.7305 291.3845 15.08864477135636,6917.806,95.436,540.69,538.651,0.0
52001.0,STARLINK-3659,PAYLOAD,2024-08-11 23:55:00,15.08830693,4.16e-05,53.2154,79.0251,63.0573,297.0461,0.0010463,0.00016399,0.0,0 STARLINK-3659,1 52001U 22025AX  24224.99653081  .00016399  00000-0  10463-2 0  9998,2 52001  53.2154  79.0251 0000416  63.0573 297.0461 15.08830693135695,6917.909,95.438,540.062,539.486,0.0
52001.0,STARLINK-3659,PAYLOAD,2024-08-12 07:51:57,15.08816144,0.0002342,53.2162,77.5465,55.1093,305.0119,0.0010259,0.00016066,0.0,0 STARLINK-3659,1 52001U 22025AX  24225.32774547  .00016066  00000-0  10259-2 0  9991,2 52001  53.2162  77.5465 0002342  55.1093 305.0119 15.08816144135744,6917.953,95.439,541.438,538.198,0.0
52001.0,STARLINK-3659,PAYLOAD,2024-08-12 14:13:29,15.08826959,0.0001819,53.2163,76.3549,58.8909,301.2261,0.001204,0.00018919,0.0,0 STARLINK-3659,1 52001U 22025AX  24225.59270671  .00018919  00000-0  12040-2 0  9998,2 52001  53.2163  76.3549 0001819  58.8909 301.2261 15.08826959134255,6917.92,95.438,541.044,538.527,0.0
52001.0,STARLINK-3659,PAYLOAD,2024-08-12 20:35:01,15.0886781,0.0001748,53.2168,75.1638,85.7982,274.3209,0.0021537,0.00034181,0.0,0 STARLINK-3659,1 52001U 22025AX  24225.85766025  .00034181  00000-0  21537-2 0  9990,2 52001  53.2168  75.1638 0001748  85.7982 274.3209 15.08867810134294,6917.795,95.436,540.87,538.451,0.0
52001.0,STARLINK-3659,PAYLOAD,2024-08-12 23:45:47,15.08882745,0.0001684,53.2164,74.5688,92.9811,267.1374,0.0027065,0.000431,0.0,0 STARLINK-3659,1 52001U 22025AX  24225.99013681  .00043100  00000-0  27065-2 0  9991,2 52001  53.2164  74.5688 0001684  92.9811 267.1374 15.08882745135847,6917.75,95.435,540.78,538.45,0.0
